NORAD_CAT_ID,OBJECT_NAME,OBJECT_TYPE,EPOCH,MEAN_MOTION,ECCENTRICITY,INCLINATION,RA_OF_ASC_NODE,ARG_OF_PERICENTER,MEAN_ANOMALY,BSTAR,MEAN_MOTION_DOT,MEAN_MOTION_DDOT,TLE_LINE0,TLE_LINE1,TLE_LINE2,SEMIMAJOR_AXIS,PERIOD,APOGEE,PERIGEE,DECAYED
52357.0,STARLINK-3821,PAYLOAD,2023-04-03 15:30:00,15.08860078,0.0001406,53.2159,327.2232,94.2142,265.9011,0.00077226,0.00012031,0.0,0 STARLINK-3821,1 52357U 22045AC  23093.64584063  .00012031  00000-0  77226-3 0  9992,2 52357  53.2159 327.2232 0001406  94.2142 265.9011 15.08860078 54098,6917.819,95.436,540.657,538.711,0.0
52357.0,STARLINK-3821,PAYLOAD,2023-04-03 21:51:33,15.08844234,0.0001125,53.2159,326.0337,89.4042,270.7079,0.0013258,0.00020877,0.0,0 STARLINK-3821,1 52357U 22045AC  23093.91080250  .00020877  00000-0  13258-2 0  9992,2 52357  53.2159 326.0337 0001125  89.4042 270.7079 15.08844234 54133,6917.867,95.437,540.511,538.954,0.0
52357.0,STARLINK-3821,PAYLOAD,2023-04-04 01:02:19,15.08841059,0.0001294,53.2162,325.4382,97.432,262.6819,0.0014151,0.00022306,0.0,0 STARLINK-3821,1 52357U 22045AC  23094.04328388  .00022306  00000-0  14151-2 0  9996,2 52357  53.2162 325.4382 0001294  97.4320 262.6819 15.08841059 54151,6917.877,95.437,540.637,538.847,0.0
52357.0,STARLINK-3821,PAYLOAD,2023-04-04 18:31:34,15.08833227,0.0001398,53.2158,322.1669,100.0413,260.0737,0.00076863,0.00011964,0.0,0 STARLINK-3821,1 52357U 22045AC  23094.77193167  .00011964  00000-0  76863-3 0  9998,2 52357  53.2158 322.1669 0001398 100.0413 260.0737 15.08833227 54268,6917.901,95.438,540.733,538.799,0.0
52357.0,STARLINK-3821,PAYLOAD,2023-04-04 21:42:21,15.08835797,0.0001423,53.2157,321.5716,93.196,266.9194,0.00098722,0.00015457,0.0,0 STARLINK-3821,1 52357U 22045AC  23094.90441304  .00015457  00000-0  98722-3 0  9991,2 52357  53.2157 321.5716 0001423  93.1960 266.9194 15.08835797 54289,6917.893,95.438,540.743,538.774,0.0
52357.0,STARLINK-3821,PAYLOAD,2023-04-05 02:28:30,15.08848949,0.0001258,53.2157,320.6795,94.4666,265.647,0.00083839,0.00013083,0.0,0 STARLINK-3821,1 52357U 22045AC  23095.10313015  .00013083  00000-0  83839-3 0  9997,2 52357  53.2157 320.6795 0001258  94.4666 265.6470 15.08848949 54319,6917.853,95.437,540.588,538.848,0.0
52357.0,STARLINK-3821,PAYLOAD,2023-04-05 21:33:08,15.08849507,0.0001153,53.2162,317.1119,98.3849,261.7274,0.0012388,0.00019488,0.0,0 STARLINK-3821,1 52357U 22045AC  23095.89801282  .00019488  00000-0  12388-2 0  9996,2 52357  53.2162 317.1119 0001153  98.3849 261.7274 15.08849507 54439,6917.851,95.437,540.514,538.919,0.0
52357.0,STARLINK-3821,PAYLOAD,2023-04-06 02:19:17,15.08858833,9.95e-05,53.2159,316.22,87.6211,272.4895,0.0013124,0.00020671,0.0,0 STARLINK-3821,1 52357U 22045AC  23096.09673062  .00020671  00000-0  13124-2 0  9997,2 52357  53.2159 316.2200 0000995  87.6211 272.4895 15.08858833 54466,6917.823,95.436,540.376,539.0,0.0
52357.0,STARLINK-3821,PAYLOAD,2023-04-06 21:23:55,15.08850236,9.98e-05,53.2154,312.6514,101.902,258.2084,0.00091636,0.0001433,0.0,0 STARLINK-3821,1 52357U 22045AC  23096.89161227  .00014330  00000-0  91636-3 0  9990,2 52357  53.2154 312.6514 0000998 101.9020 258.2084 15.08850236 54584,6917.849,95.437,540.405,539.024,0.0
52357.0,STARLINK-3821,PAYLOAD,2023-04-07 02:10:04,15.08859239,9.97e-05,53.2152,311.7587,99.2733,260.8372,0.0010546,0.00016545,0.0,0 STARLINK-3821,1 52357U 22045AC  23097.09033013  .00016545  00000-0  10546-2 0  9994,2 52357  53.2152 311.7587 0000997  99.2733 260.8372 15.08859239 54616,6917.822,95.436,540.376,538.997,0.0
52357.0,STARLINK-3821,PAYLOAD,2023-04-07 21:14:42,15.08844169,0.0001738,53.2138,308.1902,102.4183,257.7003,0.00054298,8.365e-05,0.0,0 STARLINK-3821,1 52357U 22045AC  23097.88521317  .00008365  00000-0  54298-3 0  9994,2 52357  53.2138 308.1902 0001738 102.4183 257.7003 15.08844169 54736,6917.868,95.437,540.935,538.53,0.0
52357.0,STARLINK-3821,PAYLOAD,2023-04-08 00:25:28,15.08846379,0.0001044,53.2147,307.5958,87.9032,272.208,0.00057025,8.801e-05,0.0,0 STARLINK-3821,1 52357U 22045AC  23098.01769273  .00008801  00000-0  57025-3 0  9991,2 52357  53.2147 307.5958 0001044  87.9032 272.2080 15.08846379 54754,6917.861,95.437,540.448,539.004,0.0
52357.0,STARLINK-3821,PAYLOAD,2023-04-08 17:54:43,15.08841191,0.000134,53.2139,304.3252,82.6899,277.4246,0.0002086,3.034e-05,0.0,0 STARLINK-3821,1 52357U 22045AC  23098.74633454  .00003034  00000-0  20860-3 0  9992,2 52357  53.2139 304.3252 0001340  82.6899 277.4246 15.08841191 54869,6917.877,95.437,540.669,538.815,0.0
52357.0,STARLINK-3821,PAYLOAD,2023-04-09 12:59:20,15.08839532,0.0001188,53.2171,300.7553,122.9295,237.1811,7.6004e-05,9.22e-06,0.0,0 STARLINK-3821,1 52357U 22045AC  23099.54121406  .00000922  00000-0  76004-4 0  9995,2 52357  53.2171 300.7553 0001188 122.9295 237.1811 15.08839532 54987,6917.882,95.438,540.569,538.925,0.0
52357.0,STARLINK-3821,PAYLOAD,2023-04-09 20:56:16,15.08841623,9.2e-05,53.2162,299.2684,94.4455,265.6642,6.2468e-05,7.07e-06,0.0,0 STARLINK-3821,1 52357U 22045AC  23099.87241471  .00000707  00000-0  62468-4 0  9996,2 52357  53.2162 299.2684 0000920  94.4455 265.6642 15.08841623 55037,6917.875,95.437,540.377,539.104,0.0
52357.0,STARLINK-3821,PAYLOAD,2023-04-09 22:31:39,15.08844208,9.75e-05,53.216,298.9714,89.1835,270.9269,0.00011331,1.516e-05,0.0,0 STARLINK-3821,1 52357U 22045AC  23099.93865368  .00001516  00000-0  11331-3 0  9991,2 52357  53.2160 298.9714 0000975  89.1835 270.9269 15.08844208 55045,6917.868,95.437,540.407,539.058,0.0
52357.0,STARLINK-3821,PAYLOAD,2023-04-10 12:50:08,15.08829464,0.0001076,53.2159,296.2953,103.2209,256.8903,0.00034245,5.165e-05,0.0,0 STARLINK-3821,1 52357U 22045AC  23100.53482380  .00005165  00000-0  34245-3 0  9992,2 52357  53.2159 296.2953 0001076 103.2209 256.8903 15.08829464 55130,6917.913,95.438,540.522,539.033,0.0
52357.0,STARLINK-3821,PAYLOAD,2023-04-10 19:11:40,15.08843262,0.0001018,53.2157,295.1049,98.8461,261.2646,7.2095e-05,8.6e-06,0.0,0 STARLINK-3821,1 52357U 22045AC  23100.79977511  .00000860  00000-0  72095-4 0  9998,2 52357  53.2157 295.1049 0001018  98.8461 261.2646 15.08843262 55177,6917.87,95.437,540.44,539.031,0.0
52357.0,STARLINK-3821,PAYLOAD,2023-04-11 12:40:55,15.08839761,0.0001573,53.2154,291.8341,104.0139,256.1028,8.842e-05,1.119e-05,0.0,0 STARLINK-3821,1 52357U 22045AC  23101.52841853  .00001119  00000-0  88420-4 0  9996,2 52357  53.2154 291.8341 0001573 104.0139 256.1028 15.08839761 55288,6917.881,95.438,540.834,538.658,0.0
52357.0,STARLINK-3821,PAYLOAD,2023-04-11 19:02:28,15.08839002,0.0001422,53.2155,290.6453,93.8412,266.2743,8.8779e-05,1.125e-05,0.0,0 STARLINK-3821,1 52357U 22045AC  23101.79337988  .00001125  00000-0  88779-4 0  9998,2 52357  53.2155 290.6453 0001422  93.8412 266.2743 15.08839002 55321,6917.883,95.438,540.732,538.765,0.0
52357.0,STARLINK-3821,PAYLOAD,2023-04-13 10:47:07,15.08827597,0.0001294,53.215,283.2113,91.8201,268.294,0.00051538,7.921e-05,0.0,0 STARLINK-3821,1 52357U 22045AC  23103.44938795  .00007921  00000-0  51538-3 0  9997,2 52357  53.2150 283.2113 0001294  91.8201 268.2940 15.08827597 55572,6917.918,95.438,540.678,538.888,0.0
52357.0,STARLINK-3821,PAYLOAD,2023-04-14 12:13:16,15.08836863,0.0001618,53.2186,278.4533,95.6009,264.5168,0.00015043,2.107e-05,0.0,0 STARLINK-3821,1 52357U 22045AC  23104.50922191  .00002107  00000-0  15043-3 0  9990,2 52357  53.2186 278.4533 0001618  95.6009 264.5168 15.08836863 55736,6917.89,95.438,540.874,538.636,0.0
52357.0,STARLINK-3821,PAYLOAD,2023-04-14 21:45:34,15.08849758,0.000112,53.2151,276.6675,86.5578,273.5543,0.00010083,1.318e-05,0.0,0 STARLINK-3821,1 52357U 22045AC  23104.90665361  .00001318  00000-0  10083-3 0  9999,2 52357  53.2151 276.6675 0001120  86.5578 273.5543 15.08849758 55793,6917.851,95.437,540.49,538.941,0.0
52357.0,STARLINK-3821,PAYLOAD,2023-04-15 12:04:03,15.08834034,0.0001153,53.2147,273.9909,98.2105,261.9018,-5.7849e-05,-1.208e-05,0.0,0 STARLINK-3821,1 52357U 22045AC  23105.50282266 -.00001208  00000-0 -57849-4 0  9997,2 52357  53.2147 273.9909 0001153  98.2105 261.9018 15.08834034 55889,6917.899,95.438,540.561,538.966,0.0
52357.0,STARLINK-3821,PAYLOAD,2023-04-15 20:00:59,15.08846903,9.93e-05,53.2159,272.5052,98.1395,261.971,0.00015745,2.219e-05,0.0,0 STARLINK-3821,1 52357U 22045AC  23105.83401711  .00002219  00000-0  15745-3 0  9990,2 52357  53.2159 272.5052 0000993  98.1395 261.9710 15.08846903 55930,6917.859,95.437,540.411,539.037,0.0
52357.0,STARLINK-3821,PAYLOAD,2023-04-16 11:54:51,15.0883099,0.0001165,53.2166,269.5324,87.5131,272.5994,-5.577e-05,-1.175e-05,0.0,0 STARLINK-3821,1 52357U 22045AC  23106.49642511 -.00001175  00000-0 -55770-4 0  9993,2 52357  53.2166 269.5324 0001165  87.5131 272.5994 15.08830990 56031,6917.908,95.438,540.579,538.967,0.0
52357.0,STARLINK-3821,PAYLOAD,2023-04-16 19:51:46,15.08839606,0.000107,53.2168,268.0446,82.4396,277.6717,6.0269e-05,6.72e-06,0.0,0 STARLINK-3821,1 52357U 22045AC  23106.82762392  .00000672  00000-0  60269-4 0  9998,2 52357  53.2168 268.0446 0001070  82.4396 277.6717 15.08839606 56081,6917.882,95.438,540.487,539.006,0.0
52357.0,STARLINK-3821,PAYLOAD,2023-04-17 10:10:15,15.08837561,0.0001146,53.2156,265.3675,77.4443,282.6678,0.00017566,2.509e-05,0.0,0 STARLINK-3821,1 52357U 22045AC  23107.42378699  .00002509  00000-0  17566-3 0  9990,2 52357  53.2156 265.3675 0001146  77.4443 282.6678 15.08837561 56173,6917.888,95.438,540.546,538.96,0.0
52357.0,STARLINK-3821,PAYLOAD,2023-04-17 18:07:10,15.08851279,0.0001141,53.2153,263.8807,73.3331,286.7786,0.00035475,5.364e-05,0.0,0 STARLINK-3821,1 52357U 22045AC  23107.75498149  .00005364  00000-0  35475-3 0  9990,2 52357  53.2153 263.8807 0001141  73.3331 286.7786 15.08851279 56229,6917.846,95.437,540.5,538.922,0.0
52357.0,STARLINK-3821,PAYLOAD,2023-04-18 10:01:02,15.08843667,0.0001174,53.2151,260.9073,70.7827,289.3292,0.00024879,3.674e-05,0.0,0 STARLINK-3821,1 52357U 22045AC  23108.41738428  .00003674  00000-0  24879-3 0  9999,2 52357  53.2151 260.9073 0001174  70.7827 289.3292 15.08843667 56321,6917.869,95.437,540.546,538.922,0.0
